{
  "norad_id": 63882,
  "name": "STARLINK-34003",
  "history": [
    {
      "epoch": "2026-03-28T13:52:05.342304",
      "apogee_km": 440.4120449257143,
      "perigee_km": 435.6516326087194,
      "latitude_deg": 69.46317231649168,
      "longitude_deg": -96.3273974400945,
      "semi_major_axis_km": 6816.168838767217,
      "eccentricity": 0.0003492,
      "inclination_deg": 70.0003,
      "raan_deg": 154.3123,
      "arg_perigee_deg": 268.535,
      "mean_anomaly_deg": 91.5432,
      "mean_motion_rev_day": 15.42738269
    },
    {
      "epoch": "2026-03-29T05:25:47.003808",
      "apogee_km": 440.15784521417663,
      "perigee_km": 435.8909281861015,
      "latitude_deg": -33.39045629236967,
      "longitude_deg": -34.081106879981235,
      "semi_major_axis_km": 6816.161386700139,
      "eccentricity": 0.000313,
      "inclination_deg": 70.0017,
      "raan_deg": 152.5616,
      "arg_perigee_deg": 274.5187,
      "mean_anomaly_deg": 85.5638,
      "mean_motion_rev_day": 15.42740799
    }
  ]
}